NORAD_CAT_ID,OBJECT_NAME,OBJECT_TYPE,EPOCH,MEAN_MOTION,ECCENTRICITY,INCLINATION,RA_OF_ASC_NODE,ARG_OF_PERICENTER,MEAN_ANOMALY,BSTAR,MEAN_MOTION_DOT,MEAN_MOTION_DDOT,TLE_LINE0,TLE_LINE1,TLE_LINE2,SEMIMAJOR_AXIS,PERIOD,APOGEE,PERIGEE,DECAYED
53176.0,STARLINK-4294,PAYLOAD,2023-07-26 04:38:17,15.08858142,0.0001257,53.2176,127.4024,90.9653,269.1483,0.00016445,2.332e-05,0.0,0 STARLINK-4294,1 53176U 22083AW  23207.19325801  .00002332  00000-0  16445-3 0  9993,2 53176  53.2176 127.4024 0001257  90.9653 269.1483 15.08858142 57013,6917.825,95.436,540.56,538.82,0.0
53176.0,STARLINK-4294,PAYLOAD,2023-07-27 02:53:42,15.08840905,8.25e-05,53.2172,123.2391,112.9705,247.1374,-6.7847e-06,-3.96e-06,0.0,0 STARLINK-4294,1 53176U 22083AW  23208.12063343 -.00000396  00000-0 -67847-5 0  9991,2 53176  53.2172 123.2391 0000825 112.9705 247.1374 15.08840905 57791,6917.878,95.437,540.313,539.172,0.0
53176.0,STARLINK-4294,PAYLOAD,2023-07-27 04:29:05,15.08842746,9.07e-05,53.2167,122.9407,118.8905,241.2178,-8.2827e-06,-4.2e-06,0.0,0 STARLINK-4294,1 53176U 22083AW  23208.18687207 -.00000420  00000-0 -82827-5 0  9991,2 53176  53.2167 122.9407 0000907 118.8905 241.2178 15.08842746 57160,6917.872,95.437,540.364,539.11,0.0
53176.0,STARLINK-4294,PAYLOAD,2023-07-27 21:58:21,15.0883755,0.0001228,53.2181,119.6713,83.9607,276.1525,-0.00028918,-4.887e-05,0.0,0 STARLINK-4294,1 53176U 22083AW  23208.91552862 -.00004887  00000-0 -28918-3 0  9990,2 53176  53.2181 119.6713 0001228  83.9607 276.1525 15.08837550 57279,6917.888,95.438,540.602,538.903,0.0
53176.0,STARLINK-4294,PAYLOAD,2023-07-28 02:44:31,15.08836372,0.0001211,53.2181,118.7794,77.7861,282.3266,-0.0002762,-4.68e-05,0.0,0 STARLINK-4294,1 53176U 22083AW  23209.11424941 -.00004680  00000-0 -27620-3 0  9999,2 53176  53.2181 118.7794 0001211  77.7861 282.3266 15.08836372 57949,6917.891,95.438,540.594,538.919,0.0
53176.0,STARLINK-4294,PAYLOAD,2023-07-28 04:19:54,15.08835816,0.0001105,53.2175,118.4806,85.7303,274.3815,-0.00024868,-4.243e-05,0.0,0 STARLINK-4294,1 53176U 22083AW  23209.18048890 -.00004243  00000-0 -24868-3 0  9997,2 53176  53.2175 118.4806 0001105  85.7303 274.3815 15.08835816 57319,6917.893,95.438,540.523,538.994,0.0
53176.0,STARLINK-4294,PAYLOAD,2023-07-29 02:35:17,15.08846113,8.52e-05,53.217,114.318,85.8429,274.266,0.00011828,1.596e-05,0.0,0 STARLINK-4294,1 53176U 22083AW  23210.10783982  .00001596  00000-0  11828-3 0  9997,2 53176  53.2170 114.3180 0000852  85.8429 274.2660 15.08846113 58097,6917.862,95.437,540.316,539.137,0.0
53176.0,STARLINK-4294,PAYLOAD,2023-07-30 02:26:04,15.0884482,0.0001022,53.2175,109.8592,78.4886,281.6221,0.00029288,4.377e-05,0.0,0 STARLINK-4294,1 53176U 22083AW  23211.10144242  .00004377  00000-0  29288-3 0  9997,2 53176  53.2175 109.8592 0001022  78.4886 281.6221 15.08844820 58248,6917.866,95.437,540.438,539.024,0.0
53176.0,STARLINK-4294,PAYLOAD,2023-07-31 02:16:51,15.0884974,9.72e-05,53.2169,105.3966,88.9284,271.1819,8.4241e-05,1.054e-05,0.0,0 STARLINK-4294,1 53176U 22083AW  23212.09504306  .00001054  00000-0  84241-4 0  9997,2 53176  53.2169 105.3966 0000972  88.9284 271.1819 15.08849740 58397,6917.851,95.437,540.388,539.043,0.0
53176.0,STARLINK-4294,PAYLOAD,2023-07-31 10:13:48,15.08840478,0.0001081,53.218,103.9101,80.4606,279.6508,1.098e-05,-1.13e-06,0.0,0 STARLINK-4294,1 53176U 22083AW  23212.42625049 -.00000113  00000-0  10980-4 0  9997,2 53176  53.2180 103.9101 0001081  80.4606 279.6508 15.08840478 58445,6917.879,95.438,540.492,538.996,0.0
53176.0,STARLINK-4294,PAYLOAD,2023-08-01 16:26:07,15.08846284,0.0001175,53.2176,98.2599,88.2479,271.8648,6.1467e-06,-1.9e-06,0.0,0 STARLINK-4294,1 53176U 22083AW  23213.68480980 -.00000190  00000-0  61467-5 0  9991,2 53176  53.2176  98.2599 0001175  88.2479 271.8648 15.08846284 58636,6917.861,95.437,540.539,538.913,0.0
53176.0,STARLINK-4294,PAYLOAD,2023-08-02 01:58:25,15.08852612,0.0001121,53.2169,96.475,88.9146,271.1974,5.557e-05,5.97e-06,0.0,0 STARLINK-4294,1 53176U 22083AW  23214.08224313  .00000597  00000-0  55570-4 0  9999,2 53176  53.2169  96.4750 0001121  88.9146 271.1974 15.08852612 58699,6917.842,95.437,540.482,538.931,0.0
53176.0,STARLINK-4294,PAYLOAD,2023-08-03 01:49:12,15.08852533,0.0001194,53.2161,92.0143,88.6501,271.4628,0.00026446,3.925e-05,0.0,0 STARLINK-4294,1 53176U 22083AW  23215.07584387  .00003925  00000-0  26446-3 0  9996,2 53176  53.2161  92.0143 0001194  88.6501 271.4628 15.08852533 58849,6917.842,95.437,540.533,538.881,0.0
53176.0,STARLINK-4294,PAYLOAD,2023-08-04 01:40:00,15.08837755,0.0001125,53.2161,87.5543,83.1405,276.9715,-2.2354e-05,-6.44e-06,0.0,0 STARLINK-4294,1 53176U 22083AW  23216.06945211 -.00000644  00000-0 -22354-4 0  9995,2 53176  53.2161  87.5543 0001125  83.1405 276.9715 15.08837755 58991,6917.887,95.438,540.531,538.974,0.0
53176.0,STARLINK-4294,PAYLOAD,2023-08-04 23:55:24,15.08847991,0.0001039,53.2161,83.3912,85.4432,274.6679,0.00010466,1.379e-05,0.0,0 STARLINK-4294,1 53176U 22083AW  23216.99680681  .00001379  00000-0  10466-3 0  9998,2 53176  53.2161  83.3912 0001039  85.4432 274.6679 15.08847991 59138,6917.856,95.437,540.44,539.002,0.0
53176.0,STARLINK-4294,PAYLOAD,2023-08-05 19:00:01,15.08844732,0.0001284,53.2165,79.8258,86.9932,273.1207,0.00026145,3.876e-05,0.0,0 STARLINK-4294,1 53176U 22083AW  23217.79168893  .00003876  00000-0  26145-3 0  9998,2 53176  53.2165  79.8258 0001284  86.9932 273.1207 15.08844732 59252,6917.866,95.437,540.619,538.843,0.0
53176.0,STARLINK-4294,PAYLOAD,2023-08-05 23:46:10,15.08858769,0.000104,53.2154,78.9293,96.8704,263.2407,0.00038549,5.856e-05,0.0,0 STARLINK-4294,1 53176U 22083AW  23217.99040000  .00005856  00000-0  38549-3 0  9990,2 53176  53.2154  78.9293 0001040  96.8704 263.2407 15.08858769 59286,6917.823,95.436,540.407,538.969,0.0
53176.0,STARLINK-4294,PAYLOAD,2023-08-06 07:43:07,15.08839315,0.0001839,53.2158,77.444,72.855,287.2644,2.0596e-05,4e-07,0.0,0 STARLINK-4294,1 53176U 22083AW  23218.32161122  .00000040  00000-0  20596-4 0  9991,2 53176  53.2158  77.4440 0001839  72.8550 287.2644 15.08839315 59338,6917.882,95.438,541.02,538.475,0.0
53176.0,STARLINK-4294,PAYLOAD,2023-08-06 23:36:59,15.08822423,0.0001155,53.2172,74.4717,79.9356,280.1766,-0.00025622,-4.361e-05,0.0,0 STARLINK-4294,1 53176U 22083AW  23218.98402317 -.00004361  00000-0 -25622-3 0  9993,2 53176  53.2172  74.4717 0001155  79.9356 280.1766 15.08822423 59431,6917.934,95.439,540.598,539.0,0.0
53176.0,STARLINK-4294,PAYLOAD,2023-08-07 20:17:00,15.08837808,0.0001007,53.2164,70.6055,71.0136,289.0965,2.1254e-05,5.1e-07,0.0,0 STARLINK-4294,1 53176U 22083AW  23219.84514311  .00000051  00000-0  21254-4 0  9995,2 53176  53.2164  70.6055 0001007  71.0136 289.0965 15.08837808 59566,6917.887,95.438,540.449,539.055,0.0
53176.0,STARLINK-4294,PAYLOAD,2023-08-08 23:18:32,15.08884204,0.0001042,53.2166,65.5492,63.516,296.5939,0.0011829,0.00018611,0.0,0 STARLINK-4294,1 53176U 22083AW  23220.97121036  .00018611  00000-0  11829-2 0  9995,2 53176  53.2166  65.5492 0001042  63.5160 296.5939 15.08884204 59733,6917.745,95.435,540.331,538.889,0.0
53176.0,STARLINK-4294,PAYLOAD,2023-08-09 07:15:28,15.08851261,0.0002504,53.2166,64.0622,79.9225,280.205,0.00034498,5.208e-05,0.0,0 STARLINK-4294,1 53176U 22083AW  23221.30241230  .00005208  00000-0  34498-3 0  9998,2 53176  53.2166  64.0622 0002504  79.9225 280.2050 15.08851261 59785,6917.846,95.437,541.443,537.979,0.0
53176.0,STARLINK-4294,PAYLOAD,2023-08-09 23:09:19,15.08851813,8.98e-05,53.2167,61.0885,77.6866,282.4226,0.00046785,7.168e-05,0.0,0 STARLINK-4294,1 53176U 22083AW  23221.96480978  .00007168  00000-0  46785-3 0  9993,2 53176  53.2167  61.0885 0000898  77.6866 282.4226 15.08851813 59887,6917.844,95.437,540.331,539.088,0.0
53176.0,STARLINK-4294,PAYLOAD,2023-08-10 13:27:48,15.08841998,0.0001029,53.217,58.4118,83.0784,277.0325,0.0011438,0.00017963,0.0,0 STARLINK-4294,1 53176U 22083AW  23222.56097707  .00017963  00000-0  11438-2 0  9994,2 53176  53.2170  58.4118 0001029  83.0784 277.0325 15.08841998 59970,6917.874,95.437,540.451,539.027,0.0
53176.0,STARLINK-4294,PAYLOAD,2023-08-10 23:00:08,15.08800906,0.000113,53.2166,56.6282,74.0901,286.0216,-0.00050757,-8.348e-05,0.0,0 STARLINK-4294,1 53176U 22083AW  23222.95843157 -.00008348  00000-0 -50757-3 0  9992,2 53176  53.2166  56.6282 0001130  74.0901 286.0216 15.08800906 60033,6918.0,95.44,540.647,539.083,0.0
53176.0,STARLINK-4294,PAYLOAD,2023-08-11 18:04:46,15.08850934,9.98e-05,53.2166,53.0619,58.1225,301.9864,0.0025285,0.00040195,0.0,0 STARLINK-4294,1 53176U 22083AW  23223.75331950  .00040195  00000-0  25285-2 0  9995,2 53176  53.2166  53.0619 0000998  58.1225 301.9864 15.08850934 60156,6917.847,95.437,540.402,539.022,0.0
53176.0,STARLINK-4294,PAYLOAD,2023-08-11 22:50:56,15.08855077,0.0001101,53.2172,52.1702,62.8178,297.2926,0.0019684,0.00031191,0.0,0 STARLINK-4294,1 53176U 22083AW  23223.95203897  .00031191  00000-0  19684-2 0  9997,2 53176  53.2172  52.1702 0001101  62.8178 297.2926 15.08855077 60184,6917.834,95.437,540.461,538.938,0.0
53176.0,STARLINK-4294,PAYLOAD,2023-08-12 11:34:00,15.08872526,0.0001068,53.2177,49.7918,66.5317,293.5787,0.0015361,0.00024265,0.0,0 STARLINK-4294,1 53176U 22083AW  23224.48195195  .00024265  00000-0  15361-2 0  9999,2 53176  53.2177  49.7918 0001068  66.5317 293.5787 15.08872526 60269,6917.781,95.435,540.385,538.907,0.0
53176.0,STARLINK-4294,PAYLOAD,2023-08-12 19:30:55,15.08879423,0.0001214,53.2173,48.3041,56.4175,303.6933,0.0012188,0.00019183,0.0,0 STARLINK-4294,1 53176U 22083AW  23224.81314511  .00019183  00000-0  12188-2 0  9998,2 53176  53.2173  48.3041 0001214  56.4175 303.6933 15.08879423 60315,6917.76,95.435,540.465,538.785,0.0
53176.0,STARLINK-4294,PAYLOAD,2023-08-13 11:24:46,15.08858353,0.0002178,53.2173,45.3303,73.5544,286.5687,0.00097769,0.00015314,0.0,0 STARLINK-4294,1 53176U 22083AW  23225.47554349  .00015314  00000-0  97769-3 0  9997,2 53176  53.2173  45.3303 0002178  73.5544 286.5687 15.08858353 60418,6917.824,95.436,541.196,538.183,0.0
